OBJECT_NAME,OBJECT_ID,EPOCH,MEAN_MOTION,ECCENTRICITY,INCLINATION,RA_OF_ASC_NODE,ARG_OF_PERICENTER,MEAN_ANOMALY,EPHEMERIS_TYPE,CLASSIFICATION_TYPE,NORAD_CAT_ID,ELEMENT_SET_NO,REV_AT_EPOCH,BSTAR,MEAN_MOTION_DOT,MEAN_MOTION_DDOT
ASTRA 2E,2013-056A,2026-07-04T05:28:09.757344,1.00275756,.00027447,0.0726,317.2822,162.5917,272.9286,0,U,39285,999,4658,0,.163E-5,0
FM-6,2013-058A,2026-07-02T16:51:02.864736,1.00271889,.00019604,0.0160,40.7600,138.6453,237.7772,0,U,39360,999,4622,0,-.5E-7,0
RADUGA-1M 3,2013-062A,2026-07-02T17:34:15.543840,1.00273797,.00018777,5.9949,72.1589,282.0892,225.0751,0,U,39375,999,4626,0,.161E-5,0
SES-8,2013-071A,2026-07-04T02:21:45.069984,1.00272155,.00029901,0.0396,266.0043,194.2685,312.2853,0,U,39460,999,4459,0,-.258E-5,0
INMARSAT 5-F1,2013-073A,2026-07-02T20:52:37.649280,1.00272744,.00005811,0.0185,28.4066,336.8665,291.4245,0,U,39476,999,4573,0,.38E-6,0
TKSAT-1 (TUPAC KATARI),2013-075A,2026-07-04T03:12:29.196000,1.00270452,.00026812,0.0395,131.6749,325.0769,146.3225,0,U,39481,999,4577,0,-.183E-5,0
EXPRESS-AM5,2013-077A,2026-07-03T06:02:48.219936,1.00269380,.00002186,0.0200,291.7142,104.0174,116.2728,0,U,39487,999,4652,0,-.269E-5,0
GSAT-14,2014-001A,2026-07-04T03:58:28.744608,1.00271104,.00012982,0.0402,231.2233,332.9529,211.6087,0,U,39498,999,4554,0,-.65E-6,0
THAICOM 6,2014-002A,2026-07-04T03:59:43.624896,1.00270655,.0004718,0.0624,107.7949,10.9752,301.8540,0,U,39500,999,4562,0,-.109E-5,0
TDRS 12,2014-004A,2026-07-04T00:39:24.515712,1.00277151,.00037012,3.9929,19.3497,202.0538,29.5120,0,U,39504,999,4444,0,-.259E-5,0
ABS-2,2014-006A,2026-07-04T02:19:38.788608,1.00271804,.0003771,0.0259,72.3257,15.1020,304.5150,0,U,39508,999,4544,0,-.74E-6,0
ATHENA-FIDUS,2014-006B,2026-07-03T14:06:56.571264,1.00273035,.00016243,0.0305,95.7359,20.1277,55.2824,0,U,39509,999,4525,0,.165E-5,0
TURKSAT 4A,2014-007A,2026-07-04T03:49:22.117728,1.00269383,.0000661,0.0831,281.4127,343.1697,116.9399,0,U,39522,999,4513,0,.158E-5,0
EXPRESS-AT1,2014-010A,2026-07-04T05:38:16.287072,1.00308155,.00045649,0.2995,85.4806,46.2186,299.5519,0,U,39612,999,4498,0,.17E-6,0
EXPRESS-AT2,2014-010B,2026-07-04T05:36:01.503936,1.00270729,.00002366,0.0189,30.5699,91.5130,300.1673,0,U,39613,999,4466,0,0,0
AMAZONAS 4A,2014-011A,2026-07-02T18:45:40.773888,1.00269478,.00049412,0.0699,210.9618,278.3284,358.9301,0,U,39616,999,4487,0,-.241E-5,0
ASTRA 5B,2014-011B,2026-07-02T20:26:31.722720,1.00274657,.00022147,0.0771,302.4799,165.1332,143.4211,0,U,39617,999,4482,0,.148E-5,0
IRNSS-1B,2014-017A,2026-07-03T17:37:07.603392,1.00272129,.00229079,28.8962,240.1173,194.5837,166.3850,0,U,39635,999,4496,0,.139E-5,0
LUCH-5V,2014-023A,2026-07-04T02:56:38.477184,1.00269372,.00026656,5.1723,69.5771,59.2281,292.2227,0,U,39727,999,4452,0,-.258E-5,0
KAZSAT-3,2014-023B,2026-07-02T18:35:39.751296,1.00274193,.00003398,0.0106,10.0372,160.4347,87.7460,0,U,39728,999,4261,0,.71E-6,0
EUTELSAT 3B,2014-030A,2026-07-04T05:20:47.963040,1.00272126,.00041331,0.0612,9.4000,91.3618,264.7604,0,U,39773,999,4423,0,.32E-6,0
ASIASAT 8 (AMOS-7),2014-046A,2026-07-04T05:49:52.675392,1.00273639,.00016464,0.0341,272.0413,183.7579,19.2326,0,U,40107,999,10232,0,-.321E-5,0
ASIASAT 6,2014-052A,2026-07-04T01:23:38.713344,1.00274662,.00008025,0.0308,267.6647,215.3202,299.9116,0,U,40141,999,4324,0,-.35E-5,0
OPTUS 10,2014-054A,2026-07-03T14:13:38.851392,1.00270440,.00020978,0.0560,293.6774,169.1762,188.1804,0,U,40146,999,4319,0,-.136E-5,0
MEASAT-3B,2014-054B,2026-07-04T04:02:50.826048,1.00270851,.00025484,0.0253,19.2739,67.5122,347.5975,0,U,40147,999,4307,0,-.229E-5,0
HIMAWARI-8,2014-060A,2026-07-04T06:00:04.777056,1.00271207,.00009962,0.0184,22.2355,90.4801,40.2456,0,U,40267,999,4293,0,-.264E-5,0
IRNSS-1C,2014-061A,2026-07-03T20:20:34.398240,1.00274140,.00221138,6.5591,88.6133,4.2627,217.1101,0,U,40269,999,4285,0,-.153E-5,0
INTELSAT 30 (IS-30),2014-062A,2026-07-02T13:31:51.138048,1.00277454,.00014443,0.0214,49.9436,357.0524,341.5175,0,U,40271,999,694,0,-.141E-5,0
ARSAT 1,2014-062B,2026-07-02T15:43:36.200640,1.00270091,.00019991,0.0392,290.9521,168.7347,345.0962,0,U,40272,999,4278,0,-.249E-5,0
EUTELSAT 53A,2014-064A,2026-07-04T00:27:09.420192,1.00269999,.00014309,0.0133,311.7695,229.4808,160.5783,0,U,40277,999,4173,0,.11E-5,0
GSAT-16,2014-078A,2026-07-02T21:21:34.588224,1.00271348,.00078129,0.0472,262.0432,186.4293,207.9354,0,U,40332,999,4226,0,.96E-6,0
DIRECTV 14,2014-078B,2026-07-02T10:05:17.774304,1.00271936,.0000293,0.0102,26.2148,2.4668,303.8682,0,U,40333,999,4219,0,-.115E-5,0
