ASTRA 2E                
1 39285U 13056A   26185.22789071  .00000163  00000+0  00000+0 0  9998
2 39285   0.0726 317.2822 0002744 162.5917 272.9286  1.00275756 46589
FM-6                    
1 39360U 13058A   26183.70211649 -.00000005  00000+0  00000+0 0  9992
2 39360   0.0160  40.7600 0001960 138.6453 237.7772  1.00271889 46228
RADUGA-1M 3             
1 39375U 13062A   26183.73212435  .00000161  00000+0  00000+0 0  9992
2 39375   5.9949  72.1589 0001877 282.0892 225.0751  1.00273797 46267
SES-8                   
1 39460U 13071A   26185.09843831 -.00000258  00000+0  00000+0 0  9996
2 39460   0.0396 266.0043 0002990 194.2685 312.2853  1.00272155 44597
INMARSAT 5-F1           
1 39476U 13073A   26183.86988020  .00000038  00000+0  00000+0 0  9993
2 39476   0.0185  28.4066 0000581 336.8665 291.4245  1.00272744 45735
TKSAT-1 (TUPAC KATARI)  
1 39481U 13075A   26185.13367125 -.00000183  00000+0  00000+0 0  9992
2 39481   0.0395 131.6749 0002681 325.0769 146.3225  1.00270452 45771
EXPRESS-AM5             
1 39487U 13077A   26184.25194699 -.00000269  00000+0  00000+0 0  9991
2 39487   0.0200 291.7142 0000218 104.0174 116.2728  1.00269380 46522
GSAT-14                 
1 39498U 14001A   26185.16561047 -.00000065  00000+0  00000+0 0  9991
2 39498   0.0402 231.2233 0001298 332.9529 211.6087  1.00271104 45549
THAICOM 6               
1 39500U 14002A   26185.16647714 -.00000109  00000+0  00000+0 0  9991
2 39500   0.0624 107.7949 0004718  10.9752 301.8540  1.00270655 45626
TDRS 12                 
1 39504U 14004A   26185.02736708 -.00000259  00000+0  00000+0 0  9990
2 39504   3.9929  19.3497 0003701 202.0538  29.5120  1.00277151 44448
ABS-2                   
1 39508U 14006A   26185.09697672 -.00000074  00000+0  00000+0 0  9994
2 39508   0.0259  72.3257 0003771  15.1020 304.5150  1.00271804 45444
ATHENA-FIDUS            
1 39509U 14006B   26184.58815476  .00000165  00000+0  00000+0 0  9992
2 39509   0.0305  95.7359 0001624  20.1277  55.2824  1.00273035 45259
TURKSAT 4A              
1 39522U 14007A   26185.15928377  .00000158  00000+0  00000+0 0  9999
2 39522   0.0831 281.4127 0000661 343.1697 116.9399  1.00269383 45139
EXPRESS-AT1             
1 39612U 14010A   26185.23491073  .00000017  00000+0  00000+0 0  9994
2 39612   0.2995  85.4806 0004564  46.2186 299.5519  1.00308155 44983
EXPRESS-AT2             
1 39613U 14010B   26185.23335074  .00000000  00000+0  00000+0 0  9995
2 39613   0.0189  30.5699 0000236  91.5130 300.1673  1.00270729 44662
AMAZONAS 4A             
1 39616U 14011A   26183.78172192 -.00000241  00000+0  00000+0 0  9995
2 39616   0.0699 210.9618 0004941 278.3284 358.9301  1.00269478 44879
ASTRA 5B                
1 39617U 14011B   26183.85175605  .00000148  00000+0  00000+0 0  9991
2 39617   0.0771 302.4799 0002214 165.1332 143.4211  1.00274657 44823
IRNSS-1B                
1 39635U 14017A   26184.73411578  .00000139  00000+0  00000+0 0  9997
2 39635  28.8962 240.1173 0022907 194.5837 166.3850  1.00272129 44964
LUCH-5V                 
1 39727U 14023A   26185.12266756 -.00000258  00000+0  00000+0 0  9999
2 39727   5.1723  69.5771 0002665  59.2281 292.2227  1.00269372 44520
KAZSAT-3                
1 39728U 14023B   26183.77476564  .00000071  00000+0  00000+0 0  9991
2 39728   0.0106  10.0372 0000339 160.4347  87.7460  1.00274193 42613
EUTELSAT 3B             
1 39773U 14030A   26185.22277735  .00000032  00000+0  00000+0 0  9997
2 39773   0.0612   9.4000 0004133  91.3618 264.7604  1.00272126 44235
ASIASAT 8 (AMOS-7)      
1 40107U 14046A   26185.24297078 -.00000321  00000+0  00000+0 0  9993
2 40107   0.0341 272.0413 0001646 183.7579  19.2326  1.00273639102320
ASIASAT 6               
1 40141U 14052A   26185.05808696 -.00000350  00000+0  00000+0 0  9993
2 40141   0.0308 267.6647 0000802 215.3202 299.9116  1.00274662 43244
OPTUS 10                
1 40146U 14054A   26184.59281078 -.00000136  00000+0  00000+0 0  9999
2 40146   0.0560 293.6774 0002097 169.1762 188.1804  1.00270440 43191
MEASAT-3B               
1 40147U 14054B   26185.16864382 -.00000229  00000+0  00000+0 0  9992
2 40147   0.0253  19.2739 0002548  67.5122 347.5975  1.00270851 43079
HIMAWARI-8              
1 40267U 14060A   26185.25005529 -.00000264  00000+0  00000+0 0  9991
2 40267   0.0184  22.2355 0000996  90.4801  40.2456  1.00271207 42938
IRNSS-1C                
1 40269U 14061A   26184.84762035 -.00000153  00000+0  00000+0 0  9997
2 40269   6.5591  88.6133 0022113   4.2627 217.1101  1.00274140 42859
INTELSAT 30 (IS-30)     
1 40271U 14062A   26183.56378632 -.00000141  00000+0  00000+0 0  9992
2 40271   0.0214  49.9436 0001444 357.0524 341.5175  1.00277454  6942
ARSAT 1                 
1 40272U 14062B   26183.65528010 -.00000249  00000+0  00000+0 0  9999
2 40272   0.0392 290.9521 0001999 168.7347 345.0962  1.00270091 42783
EUTELSAT 53A            
1 40277U 14064A   26185.01885903  .00000110  00000+0  00000+0 0  9991
2 40277   0.0133 311.7695 0001430 229.4808 160.5783  1.00269999 41732
GSAT-16                 
1 40332U 14078A   26183.88998366  .00000096  00000+0  00000+0 0  9992
2 40332   0.0472 262.0432 0007812 186.4293 207.9354  1.00271348 42267
DIRECTV 14              
1 40333U 14078B   26183.42034461 -.00000115  00000+0  00000+0 0  9993
2 40333   0.0102  26.2148 0000293   2.4668 303.8682  1.00271936 42196
